0 COSMOS 2251 DEB
1 36451U 93036BBA 13281.37030003  .00001129  00000-0  58866-3 0  2353
2 36451 073.9488 286.1888 0220439 324.2842 034.4132 14.04002251216393
0 COSMOS 2251 DEB
1 36451U 93036BBA 13283.65034038  .00001298  00000-0  67643-3 0  2369
2 36451 073.9454 282.1899 0218946 320.1411 038.4276 14.04010809216718
0 COSMOS 2251 DEB
1 36451U 93036BBA 13285.36035890  .00001424  00000-0  73503-3 0  2370
2 36451 073.9415 279.1901 0222871 316.9225 041.4900 14.04017965216957
0 COSMOS 2251 DEB
1 36451U 93036BBA 13287.64037846  .00001687  00000-0  87086-3 0  2389
2 36451 073.9453 275.1864 0221296 311.6728 046.6894 14.04030205217270
0 COSMOS 2251 DEB
1 36451U 93036BBA 13289.27910729  .00001768  00000-0  90791-3 0  2398
2 36451 073.9456 272.3101 0223691 308.2929 049.8612 14.04037959217504
0 COSMOS 2251 DEB
1 36451U 93036BBA 13291.27409444  .00001899  00000-0  96747-3 0  2402
2 36451 073.9446 268.8080 0226930 304.4618 053.5609 14.04048200217780
0 COSMOS 2251 DEB
1 36451U 93036BBA 13293.26907061  .00001911  00000-0  97430-3 0  2417
2 36451 073.9444 265.3118 0226494 300.6335 057.2592 14.04056044218060
0 COSMOS 2251 DEB
1 36451U 93036BBA 13295.26404547  .00002346  00000-0  12001-2 0  2424
2 36451 073.9515 261.8291 0223387 296.6231 061.4035 14.04074499218343
